format  = 'OEF2.0'       ! file format
rectype = 'ML'           ! record type (1L/ML)
refsys  = ECLM J2000     ! default reference system
END_OF_HEADER
2024YR4
! Keplerian elements: a, e, i, long. node, arg. peric., mean anomaly
 KEP   2.5163069044136290E+00  6.6159975981023389E-01   3.4082582480218 271.3674684214714 134.3645021052249  1.6920818963896668E+01
 MJD     60704.950998578 TDT
 MAG  24.047  0.150
! Non-gravitational parameters: model used, number of model parameters, dimension
 LSP   0  0    6
! PERIHELION   8.5151886084473893E-01
! APHELION   4.1810949479825190E+00
! ANODE   1.6134563046797015E+00
! DNODE  -1.6314218321377139E-02
! MOID   2.8532157798071434E-03
! PERIOD   1.4579540638135068E+03
! PHA F
! VINFTY    14.2164560610161
! U_PAR 3.6
! ORB_TYPE Apollo
! RMS    8.22798E-06   1.17251E-06   4.31536E-06   7.72656E-06   8.76443E-06   8.64210E-05
 COV   6.769968240272774E-11  9.646957745952683E-12  3.457473365420079E-11
 COV  -3.151438509698589E-13 -3.346513343938389E-11 -7.110469433965839E-10
 COV   1.374769350085458E-12  4.929612697176532E-12 -7.075387272258082E-15
 COV  -4.832006078219451E-12 -1.013217615721232E-10  1.862233070913929E-11
 COV   5.111244507367507E-12 -2.224187343052052E-11 -3.633630291446235E-10
 COV   5.969973454335258E-11 -5.388998905894120E-11 -8.122657616521732E-13
 COV   7.681517948700098E-11  3.539236068331752E-10  7.468582398398277E-09
 COR   1.000000000000000E+00  9.999588768461150E-01  9.737523305597815E-01
 COR  -4.957118741500973E-03 -4.640616935058765E-01 -9.999674645494064E-01
 COR   1.000000000000000E+00  9.742734361691194E-01 -7.809965140416462E-04
 COR  -4.702069310308761E-01 -9.999279842308735E-01  1.000000000000000E+00
 COR   1.532933938417411E-01 -5.880724346673802E-01 -9.743267618888212E-01
 COR   1.000000000000000E+00 -7.957898041743831E-01 -1.216446068114826E-03
 COR   1.000000000000000E+00  4.672689444506283E-01  1.000000000000000E+00
